{"type":"Topology","bbox":[-123.2249611,49.1989306,-123.0232419,49.3161714],"transform":{"scale":[0.000202123446893787,0.00011747575150301072],"translate":[-123.2249611,49.1989306]},"objects":{"boundary":{"type":"Polygon","arcs":[[0]],"id":"relation/1852574","properties":{"admin_level":"8","boundary":"administrative","name":"Vancouver","name:be":"Ванкувер","name:de":"Vancouver","name:el":"Βανκούβερ","name:en":"Vancouver","name:es":"Vancouver","name:fa":"ونکوور","name:fr":"Vancouver","name:it":"Vancouver","name:ko":"밴쿠버","name:ru":"Ванкувер","name:squ":"K'emk'emeláý","name:zh":"溫哥華","official_name":"City of Vancouver","population":"631486","population:date":"2016","type":"boundary","wikidata":"Q24639","wikipedia":"en:Vancouver","id":"relation/1852574"}}},"arcs":[[[481,953],[-27,18],[-30,20],[-10,7],[-3,0],[-112,0],[1,-165],[0,-104],[0,-22],[-285,7],[-8,-36],[-2,-5],[-1,-5],[-1,-3],[-3,-21],[1,-11],[1,-6],[5,-6],[5,-6],[0,-1],[4,-17],[0,-3],[1,1],[10,1],[0,-14],[21,1],[-2,-78],[62,-2],[0,-7],[2,-5],[21,0],[9,0],[0,-9],[0,-12],[-1,-34],[-10,0],[-6,0],[-5,-1],[-15,-5],[-2,-1],[0,-2],[19,-17],[9,-7],[2,-1],[8,0],[0,-64],[0,-1],[-8,0],[0,-16],[6,-1],[2,0],[0,-13],[0,-1],[-1,0],[-41,20],[-16,-17],[-56,37],[-8,-23],[-1,0],[0,-1],[-2,-6],[0,-1],[3,-2],[0,-3],[8,-9],[3,-2],[3,-4],[4,-3],[10,-10],[4,-3],[5,-4],[16,-15],[3,-8],[7,-5],[4,-6],[-1,-3],[1,-4],[0,-8],[3,-5],[4,-4],[2,0],[7,-7],[6,-3],[0,-2],[0,-1],[-1,-2],[-8,-5],[12,-4],[5,-3],[14,-4],[39,-9],[6,-6],[12,-8],[9,-8],[11,-8],[8,-4],[8,-2],[7,-1],[5,-1],[3,-1],[24,0],[17,-3],[10,-4],[14,-8],[15,-10],[15,-12],[5,-9],[19,-24],[9,-13],[6,-5],[9,1],[6,-4],[12,-8],[6,-6],[8,-5],[5,-5],[3,-5],[1,-7],[37,-11],[37,10],[16,11],[10,11],[12,10],[13,4],[7,3],[7,1],[2,-2],[13,1],[19,-3],[10,1],[4,-2],[3,0],[2,2],[10,1],[19,1],[3,1],[8,0],[11,3],[15,8],[4,-1],[8,4],[3,2],[5,0],[4,2],[4,2],[7,0],[9,3],[15,7],[15,-3],[12,-7],[10,-5],[6,-5],[4,-1],[10,-4],[8,-2],[7,1],[9,-3],[14,-1],[12,0],[19,-1],[37,1],[3,1],[10,-2],[4,-5],[5,-2],[6,-2],[9,-6],[2,-4],[6,-2],[12,0],[25,-7],[15,-7],[0,5],[1,17],[0,1],[-1,16],[0,5],[0,14],[0,1],[0,1],[0,5],[-3,19],[0,1],[1,10],[1,3],[0,83],[0,1],[1,12],[-1,76],[0,5],[0,86],[0,19],[0,46],[0,64],[0,24],[0,3],[0,36],[1,92],[0,41],[1,99],[0,5],[0,10],[-55,7],[-21,2],[-295,34],[-22,14],[-124,82]]]}